{
    "links": {
        "self": "http://www.neowsapp.com/rest/v1/neo/3479117?api_key=iIulBulltgU6a56xZRHN4H3l9WmuAYTsLGpBGhQ2"
    },
    "id": "3479117",
    "neo_reference_id": "3479117",
    "name": "(2009 WC106)",
    "designation": "2009 WC106",
    "nasa_jpl_url": "http://ssd.jpl.nasa.gov/sbdb.cgi?sstr=3479117",
    "absolute_magnitude_h": 25.5,
    "estimated_diameter": {
        "kilometers": {
            "estimated_diameter_min": 0.0211132445,
            "estimated_diameter_max": 0.0472106499
        },
        "meters": {
            "estimated_diameter_min": 21.113244479,
            "estimated_diameter_max": 47.2106498806
        },
        "miles": {
            "estimated_diameter_min": 0.0131191578,
            "estimated_diameter_max": 0.0293353287
        },
        "feet": {
            "estimated_diameter_min": 69.2691770164,
            "estimated_diameter_max": 154.8905885541
        }
    },
    "is_potentially_hazardous_asteroid": false,
    "close_approach_data": [
        {
            "close_approach_date": "2009-12-04",
            "close_approach_date_full": "2009-Dec-04 23:38",
            "epoch_date_close_approach": 1259969880000,
            "relative_velocity": {
                "kilometers_per_second": "4.5156071786",
                "kilometers_per_hour": "16256.1858429405",
                "miles_per_hour": "10100.9616977982"
            },
            "miss_distance": {
                "astronomical": "0.0399894963",
                "lunar": "15.5559140607",
                "kilometers": "5982343.468852881",
                "miles": "3717255.8601005178"
            },
            "orbiting_body": "Earth"
        },
        {
            "close_approach_date": "2011-05-25",
            "close_approach_date_full": "2011-May-25 07:24",
            "epoch_date_close_approach": 1306308240000,
            "relative_velocity": {
                "kilometers_per_second": "18.7692309193",
                "kilometers_per_hour": "67569.231309395",
                "miles_per_hour": "41984.8926433294"
            },
            "miss_distance": {
                "astronomical": "0.4739790691",
                "lunar": "184.3778578799",
                "kilometers": "70906259.161942817",
                "miles": "44059106.3953201946"
            },
            "orbiting_body": "Earth"
        }
    ],
    "orbital_data": {
        "orbit_id": "6",
        "orbit_determination_date": "2017-04-06 08:58:52",
        "first_observation_date": "2009-11-25",
        "last_observation_date": "2009-11-26",
        "data_arc_in_days": 1,
        "observations_used": 18,
        "orbit_uncertainty": "8",
        "minimum_orbit_intersection": ".011909",
        "jupiter_tisserand_invariant": "5.699",
        "epoch_osculation": "2455161.5",
        "eccentricity": ".1782388406377957",
        "semi_major_axis": "1.082908099967735",
        "inclination": "5.34683640636928",
        "ascending_node_longitude": "243.0072260159323",
        "orbital_period": "411.609917351852",
        "perihelion_distance": ".8898918157122077",
        "perihelion_argument": "257.7833862259212",
        "aphelion_distance": "1.275924384223262",
        "perihelion_time": "2455229.771456112109",
        "mean_anomaly": "300.2887948898721",
        "mean_motion": ".8746144949959141",
        "equinox": "J2000",
        "orbit_class": {
            "orbit_class_type": "APO",
            "orbit_class_description": "Near-Earth asteroid orbits which cross the Earth’s orbit similar to that of 1862 Apollo",
            "orbit_class_range": "a (semi-major axis) > 1.0 AU; q (perihelion) < 1.017 AU"
        }
    },
    "is_sentry_object": false
}